[{"OBJECT_NAME":"STARLINK-2399","OBJECT_ID":"2021-018AF","EPOCH":"2026-03-09T17:26:18.449952","MEAN_MOTION":15.06394647,"ECCENTRICITY":0.00013594,"INCLINATION":53.0566,"RA_OF_ASC_NODE":251.4493,"ARG_OF_PERICENTER":96.4804,"MEAN_ANOMALY":263.6339,"EPHEMERIS_TYPE":0,"CLASSIFICATION_TYPE":"U","NORAD_CAT_ID":47816,"ELEMENT_SET_NO":999,"REV_AT_EPOCH":27659,"BSTAR":4.5293514e-5,"MEAN_MOTION_DOT":3.93e-6,"MEAN_MOTION_DDOT":0},{"OBJECT_NAME":"FENGYUN 1C DEB","OBJECT_ID":"1999-025DNE","EPOCH":"2026-03-03T04:32:20.578848","MEAN_MOTION":15.05751159,"ECCENTRICITY":0.01321557,"INCLINATION":98.9662,"RA_OF_ASC_NODE":53.9178,"ARG_OF_PERICENTER":282.0758,"MEAN_ANOMALY":76.5683,"EPHEMERIS_TYPE":0,"CLASSIFICATION_TYPE":"U","NORAD_CAT_ID":35174,"ELEMENT_SET_NO":999,"REV_AT_EPOCH":91373,"BSTAR":0.0030573957,"MEAN_MOTION_DOT":0.00054187,"MEAN_MOTION_DDOT":0}]
